CCSDS_OMM_VERS = 2.0
CREATION_DATE  = 
ORIGINATOR     = 

OBJECT_NAME    = COSMOS 1933
OBJECT_ID      = 1988-020A
CENTER_NAME    = EARTH
REF_FRAME      = TEME
TIME_SYSTEM    = UTC
MEAN_ELEMENT_THEORY = SGP/SGP4

EPOCH          = 2025-12-30T22:56:42.619776
MEAN_MOTION    = 15.17287224
ECCENTRICITY   = .0006404
INCLINATION    = 82.5137
RA_OF_ASC_NODE = 318.8783
ARG_OF_PERICENTER = 82.5440
MEAN_ANOMALY   = 277.6521

EPHEMERIS_TYPE = 0
CLASSIFICATION_TYPE = U
NORAD_CAT_ID   = 18958
ELEMENT_SET_NO = 999
REV_AT_EPOCH   = 3980
BSTAR          = .44297E-3
MEAN_MOTION_DOT = .8858E-4
MEAN_MOTION_DDOT = 0

CCSDS_OMM_VERS = 2.0
CREATION_DATE  = 
ORIGINATOR     = 

OBJECT_NAME    = SL-3 R/B
OBJECT_ID      = 1988-032B
CENTER_NAME    = EARTH
REF_FRAME      = TEME
TIME_SYSTEM    = UTC
MEAN_ELEMENT_THEORY = SGP/SGP4

EPOCH          = 2025-12-31T02:39:37.274112
MEAN_MOTION    = 15.18950689
ECCENTRICITY   = .0028284
INCLINATION    = 97.5091
RA_OF_ASC_NODE = 343.7080
ARG_OF_PERICENTER = 111.4370
MEAN_ANOMALY   = 248.9886

EPHEMERIS_TYPE = 0
CLASSIFICATION_TYPE = U
NORAD_CAT_ID   = 19046
ELEMENT_SET_NO = 999
REV_AT_EPOCH   = 4169
BSTAR          = .42892E-3
MEAN_MOTION_DOT = .8991E-4
MEAN_MOTION_DDOT = 0

CCSDS_OMM_VERS = 2.0
CREATION_DATE  = 
ORIGINATOR     = 

OBJECT_NAME    = SL-16 R/B
OBJECT_ID      = 1988-039B
CENTER_NAME    = EARTH
REF_FRAME      = TEME
TIME_SYSTEM    = UTC
MEAN_ELEMENT_THEORY = SGP/SGP4

EPOCH          = 2025-12-30T22:14:18.180384
MEAN_MOTION    = 14.19600227
ECCENTRICITY   = .0019536
INCLINATION    = 71.0127
RA_OF_ASC_NODE = 213.9446
ARG_OF_PERICENTER = 85.1270
MEAN_ANOMALY   = 275.2085

EPHEMERIS_TYPE = 0
CLASSIFICATION_TYPE = U
NORAD_CAT_ID   = 19120
ELEMENT_SET_NO = 999
REV_AT_EPOCH   = 94862
BSTAR          = .71348E-4
MEAN_MOTION_DOT = .103E-5
MEAN_MOTION_DDOT = 0

CCSDS_OMM_VERS = 2.0
CREATION_DATE  = 
ORIGINATOR     = 

OBJECT_NAME    = COSMOS 1953
OBJECT_ID      = 1988-050A
CENTER_NAME    = EARTH
REF_FRAME      = TEME
TIME_SYSTEM    = UTC
MEAN_ELEMENT_THEORY = SGP/SGP4

EPOCH          = 2025-12-29T08:21:58.699584
MEAN_MOTION    = 15.27141359
ECCENTRICITY   = .00125356
INCLINATION    = 82.5080
RA_OF_ASC_NODE = 228.9139
ARG_OF_PERICENTER = 18.6006
MEAN_ANOMALY   = 341.5688

EPHEMERIS_TYPE = 0
CLASSIFICATION_TYPE = U
NORAD_CAT_ID   = 19210
ELEMENT_SET_NO = 999
REV_AT_EPOCH   = 2704
BSTAR          = .30113736E-3
MEAN_MOTION_DOT = .8063E-4
MEAN_MOTION_DDOT = 0

CCSDS_OMM_VERS = 2.0
CREATION_DATE  = 
ORIGINATOR     = 

OBJECT_NAME    = SL-8 R/B
OBJECT_ID      = 1988-053B
CENTER_NAME    = EARTH
REF_FRAME      = TEME
TIME_SYSTEM    = UTC
MEAN_ELEMENT_THEORY = SGP/SGP4

EPOCH          = 2025-12-31T02:45:01.974816
MEAN_MOTION    = 14.38872104
ECCENTRICITY   = .001899
INCLINATION    = 74.0463
RA_OF_ASC_NODE = 238.8553
ARG_OF_PERICENTER = 76.0599
MEAN_ANOMALY   = 40.0895

EPHEMERIS_TYPE = 0
CLASSIFICATION_TYPE = U
NORAD_CAT_ID   = 19257
ELEMENT_SET_NO = 999
REV_AT_EPOCH   = 96673
BSTAR          = .16012E-3
MEAN_MOTION_DOT = .468E-5
MEAN_MOTION_DDOT = 0

CCSDS_OMM_VERS = 2.0
CREATION_DATE  = 
ORIGINATOR     = 

OBJECT_NAME    = COSMOS 1975
OBJECT_ID      = 1988-093A
CENTER_NAME    = EARTH
REF_FRAME      = TEME
TIME_SYSTEM    = UTC
MEAN_ELEMENT_THEORY = SGP/SGP4

EPOCH          = 2025-12-30T22:29:52.218816
MEAN_MOTION    = 15.26760823
ECCENTRICITY   = .00128002
INCLINATION    = 82.5189
RA_OF_ASC_NODE = 186.6068
ARG_OF_PERICENTER = 55.7115
MEAN_ANOMALY   = 304.5334

EPHEMERIS_TYPE = 0
CLASSIFICATION_TYPE = U
NORAD_CAT_ID   = 19573
ELEMENT_SET_NO = 999
REV_AT_EPOCH   = 891
BSTAR          = .45898719E-3
MEAN_MOTION_DOT = .12138E-3
MEAN_MOTION_DDOT = 0

CCSDS_OMM_VERS = 2.0
CREATION_DATE  = 
ORIGINATOR     = 

OBJECT_NAME    = SL-14 R/B
OBJECT_ID      = 1988-093B
CENTER_NAME    = EARTH
REF_FRAME      = TEME
TIME_SYSTEM    = UTC
MEAN_ELEMENT_THEORY = SGP/SGP4

EPOCH          = 2025-12-30T18:28:11.627328
MEAN_MOTION    = 14.85572035
ECCENTRICITY   = .00192387
INCLINATION    = 82.5320
RA_OF_ASC_NODE = 106.7485
ARG_OF_PERICENTER = 265.8914
MEAN_ANOMALY   = 210.2992

EPHEMERIS_TYPE = 0
CLASSIFICATION_TYPE = U
NORAD_CAT_ID   = 19574
ELEMENT_SET_NO = 999
REV_AT_EPOCH   = 99080
BSTAR          = .10388269E-3
MEAN_MOTION_DOT = .925E-5
MEAN_MOTION_DDOT = 0

CCSDS_OMM_VERS = 2.0
CREATION_DATE  = 
ORIGINATOR     = 

OBJECT_NAME    = SL-16 R/B
OBJECT_ID      = 1988-102B
CENTER_NAME    = EARTH
REF_FRAME      = TEME
TIME_SYSTEM    = UTC
MEAN_ELEMENT_THEORY = SGP/SGP4

EPOCH          = 2025-12-31T02:32:59.847072
MEAN_MOTION    = 14.16142856
ECCENTRICITY   = .0012026
INCLINATION    = 71.0006
RA_OF_ASC_NODE = 295.7987
ARG_OF_PERICENTER = 120.2908
MEAN_ANOMALY   = 239.9407

EPHEMERIS_TYPE = 0
CLASSIFICATION_TYPE = U
NORAD_CAT_ID   = 19650
ELEMENT_SET_NO = 999
REV_AT_EPOCH   = 91718
BSTAR          = -.3877E-4
MEAN_MOTION_DOT = -.124E-5
MEAN_MOTION_DDOT = 0

CCSDS_OMM_VERS = 2.0
CREATION_DATE  = 
ORIGINATOR     = 

OBJECT_NAME    = INTERCOSMOS 24
OBJECT_ID      = 1989-080A
CENTER_NAME    = EARTH
REF_FRAME      = TEME
TIME_SYSTEM    = UTC
MEAN_ELEMENT_THEORY = SGP/SGP4

EPOCH          = 2025-12-30T20:34:33.763872
MEAN_MOTION    = 12.59470075
ECCENTRICITY   = .1188969
INCLINATION    = 82.6064
RA_OF_ASC_NODE = 149.1747
ARG_OF_PERICENTER = 92.5105
MEAN_ANOMALY   = 281.2327

EPHEMERIS_TYPE = 0
CLASSIFICATION_TYPE = U
NORAD_CAT_ID   = 20261
ELEMENT_SET_NO = 999
REV_AT_EPOCH   = 65813
BSTAR          = .26891E-3
MEAN_MOTION_DOT = .944E-5
MEAN_MOTION_DDOT = 0

CCSDS_OMM_VERS = 2.0
CREATION_DATE  = 
ORIGINATOR     = 

OBJECT_NAME    = SL-14 R/B
OBJECT_ID      = 1989-080C
CENTER_NAME    = EARTH
REF_FRAME      = TEME
TIME_SYSTEM    = UTC
MEAN_ELEMENT_THEORY = SGP/SGP4

EPOCH          = 2025-12-31T01:34:11.374752
MEAN_MOTION    = 12.50428635
ECCENTRICITY   = .123026
INCLINATION    = 82.5911
RA_OF_ASC_NODE = 217.2552
ARG_OF_PERICENTER = 341.7096
MEAN_ANOMALY   = 14.3179

EPHEMERIS_TYPE = 0
CLASSIFICATION_TYPE = U
NORAD_CAT_ID   = 20262
ELEMENT_SET_NO = 999
REV_AT_EPOCH   = 65157
BSTAR          = .15815E-3
MEAN_MOTION_DOT = .53E-5
MEAN_MOTION_DDOT = 0

CCSDS_OMM_VERS = 2.0
CREATION_DATE  = 
ORIGINATOR     = 

OBJECT_NAME    = DELTA 1 R/B
OBJECT_ID      = 1989-089B
CENTER_NAME    = EARTH
REF_FRAME      = TEME
TIME_SYSTEM    = UTC
MEAN_ELEMENT_THEORY = SGP/SGP4

EPOCH          = 2025-12-31T03:01:40.418400
MEAN_MOTION    = 14.50590071
ECCENTRICITY   = .0068626
INCLINATION    = 97.0741
RA_OF_ASC_NODE = 218.4490
ARG_OF_PERICENTER = 340.5033
MEAN_ANOMALY   = 19.3542

EPHEMERIS_TYPE = 0
CLASSIFICATION_TYPE = U
NORAD_CAT_ID   = 20323
ELEMENT_SET_NO = 999
REV_AT_EPOCH   = 88579
BSTAR          = .18507E-3
MEAN_MOTION_DOT = .712E-5
MEAN_MOTION_DDOT = 0

CCSDS_OMM_VERS = 2.0
CREATION_DATE  = 
ORIGINATOR     = 

OBJECT_NAME    = ARIANE 40 R/B
OBJECT_ID      = 1990-005H
CENTER_NAME    = EARTH
REF_FRAME      = TEME
TIME_SYSTEM    = UTC
MEAN_ELEMENT_THEORY = SGP/SGP4

EPOCH          = 2025-12-31T03:43:26.873760
MEAN_MOTION    = 14.39814009
ECCENTRICITY   = .0010941
INCLINATION    = 98.3218
RA_OF_ASC_NODE = 62.8106
ARG_OF_PERICENTER = 55.4484
MEAN_ANOMALY   = 304.7735

EPHEMERIS_TYPE = 0
CLASSIFICATION_TYPE = U
NORAD_CAT_ID   = 20443
ELEMENT_SET_NO = 999
REV_AT_EPOCH   = 88294
BSTAR          = .19319E-3
MEAN_MOTION_DOT = .564E-5
MEAN_MOTION_DDOT = 0

